{"epoch":1784902576,"count":18312,"objects":[{"id":"40042","name":"POLYITAN 1","type":"PAYLOAD","l1":"1 40042U 14033AJ  26205.04063619  .00018417  00000-0  55314-3 0  9997","l2":"2 40042  98.0941 234.8218 0007004  36.9786 323.1936 15.34473742659244"},{"id":"40043","name":"TIGRISAT","type":"PAYLOAD","l1":"1 40043U 14033AK  26205.30466970  .00001596  00000-0  18864-3 0  9993","l2":"2 40043  97.7875 354.4778 0047971 313.9514  45.7748 14.85271242651135"},{"id":"40045","name":"AEROCUBE 6A","type":"PAYLOAD","l1":"1 40045U 14033AM  26204.95583407  .00006188  00000-0  51639-3 0  9999","l2":"2 40045  97.7277  11.5274 0036137 250.7169 109.0144 14.98422054652128"},{"id":"40046","name":"AEROCUBE 6B","type":"PAYLOAD","l1":"1 40046U 14033AN  26204.92246386  .00005827  00000-0  46791-3 0  9991","l2":"2 40046  97.7203  11.3550 0038284 239.2988 120.4461 14.99865546652261"},{"id":"40055","name":"CANX-4","type":"PAYLOAD","l1":"1 40055U 14034C   26205.23636974  .00000888  00000-0  12099-3 0  9999","l2":"2 40055  98.3071  81.9013 0011409 250.3355 109.6625 14.81323496650016"},{"id":"40056","name":"CANX-5","type":"PAYLOAD","l1":"1 40056U 14034D   26205.23436983  .00000888  00000-0  12098-3 0  9997","l2":"2 40056  98.3073  81.9450 0011418 250.6518 109.3460 14.81340867640821"},{"id":"40074","name":"UKUBE 1","type":"PAYLOAD","l1":"1 40074U 14037F   26205.24976992  .00010563  00000-0  58458-3 0  9991","l2":"2 40074  98.4250 212.4327 0002936  72.9994 287.1557 15.14065632654166"},{"id":"40119","name":"BRITE-PL 2","type":"PAYLOAD","l1":"1 40119U 14049B   26205.26057130  .00002136  00000-0  20198-3 0  9997","l2":"2 40119  97.9123 317.5544 0013521 352.7139   7.3883 14.94711012646981"},{"id":"40965","name":"AEROCUBE 5C","type":"PAYLOAD","l1":"1 40965U 15058B   26205.18202388  .00004384  00000-0  38176-3 0  9997","l2":"2 40965  64.7667 147.4851 0133015  49.0126 312.2401 14.91627634371172"},{"id":"40966","name":"AEROCUBE 7","type":"PAYLOAD","l1":"1 40966U 15058C   26205.13856602  .00006230  00000-0  48918-3 0  9994","l2":"2 40966  64.7622 129.0534 0122690  47.3415 313.7959 14.95987103371489"},{"id":"40967","name":"FOX-1","type":"PAYLOAD","l1":"1 40967U 15058D   26205.30872828  .00004471  00000-0  39396-3 0  9997","l2":"2 40967  64.7741 163.6053 0133129  42.3614 318.7684 14.91140428119103"},{"id":"40968","name":"BISONSAT","type":"PAYLOAD","l1":"1 40968U 15058E   26205.24584208  .00006637  00000-0  51877-3 0  9997","l2":"2 40968  64.7745 142.8366 0121793  38.7378 322.2391 14.96166392122207"},{"id":"40970","name":"SNAP-3 ALICE","type":"PAYLOAD","l1":"1 40970U 15058G   26204.79558344  .00158878  00000-0  13006-2 0  9997","l2":"2 40970  64.7486 336.5005 0026840 343.4867  16.5406 15.69320599122617"},{"id":"40971","name":"LMRST-SAT","type":"PAYLOAD","l1":"1 40971U 15058H   26205.27359082  .00004153  00000-0  36943-3 0  9992","l2":"2 40971  64.7748 160.1236 0134647  44.3722 316.8085 14.90751879119086"},{"id":"40972","name":"SNAP-3 EDDIE","type":"PAYLOAD","l1":"1 40972U 15058J   26205.32803823  .00251389  00000-0  18793-2 0  9993","l2":"2 40972  64.7403 325.0640 0028252 345.5989  14.4353 15.71167583124843"},{"id":"40973","name":"PROPCUBE 3","type":"PAYLOAD","l1":"1 40973U 15058K   26205.21747203  .00005429  00000-0  44178-3 0  9990","l2":"2 40973  64.7681 136.8195 0126451  45.5708 315.5669 14.94481108120332"},{"id":"40974","name":"SINOD-D 1","type":"PAYLOAD","l1":"1 40974U 15058L   26205.28809557  .00016259  00000-0  75466-3 0  9996","l2":"2 40974  64.7590  53.5999 0082924  31.8286 328.7811 15.17123052121247"},{"id":"40975","name":"SNAP-3 JIMI","type":"PAYLOAD","l1":"1 40975U 15058M   26205.13004180  .00008879  00000-0  59451-3 0  9995","l2":"2 40975  64.7650 102.8510 0108423  40.8748 320.0435 15.02713074119773"},{"id":"40976","name":"PROPCUBE 1","type":"PAYLOAD","l1":"1 40976U 15058N   26205.26265795  .00003833  00000-0  35612-3 0  9999","l2":"2 40976  64.7732 180.3145 0133175  46.6373 314.5740 14.89370987121787"},{"id":"40977","name":"SINOD-D 3","type":"PAYLOAD","l1":"1 40977U 15058P   26205.25509759  .00006021  00000-0  49708-3 0  9993","l2":"2 40977  64.7715 160.0470 0121762  43.6829 317.3842 14.94241290120296"},{"id":"41849","name":"RAVAN","type":"PAYLOAD","l1":"1 41849U 16067B   26205.26644877  .00079383  00000-0  10393-2 0  9993","l2":"2 41849  97.9828  99.2214 0003709 180.4180 179.7072 15.58331437533463"},{"id":"41850","name":"CELTEE 1","type":"PAYLOAD","l1":"1 41850U 16067C   26205.07592071  .00005895  00000-0  27717-3 0  9998","l2":"2 41850  98.0634  74.1589 0002541  99.0168 261.1353 15.20009342531487"},{"id":"41851","name":"OPTICUBE 04","type":"PAYLOAD","l1":"1 41851U 16067D   26205.19487499  .00002221  00000-0  14152-3 0  9998","l2":"2 41851  98.0666  59.4064 0015435 358.0232   2.0932 15.09801587530755"},{"id":"41852","name":"AEROCUBE 8D","type":"PAYLOAD","l1":"1 41852U 16067E   26205.10553898  .00009059  00000-0  36752-3 0  9993","l2":"2 41852  98.0638  78.0884 0003941  33.6310 326.5175 15.24870796531696"},{"id":"41853","name":"AEROCUBE 8C","type":"PAYLOAD","l1":"1 41853U 16067F   26205.19001823  .00009571  00000-0  38513-3 0  9995","l2":"2 41853  98.0510  75.3602 0003638 302.9392  57.1494 15.25125855531702"},{"id":"42846","name":"CORVUS BC2","type":"PAYLOAD","l1":"1 42846U 17042X   26205.26007757  .00004123  00000-0  28269-3 0  9997","l2":"2 42846  97.4099   5.1812 0012512 351.4289   8.6723 15.06498387492646"},{"id":"42847","name":"CORVUS BC1","type":"PAYLOAD","l1":"1 42847U 17042Y   26204.98495899  .00003237  00000-0  22200-3 0  9998","l2":"2 42847  97.4136   5.7546 0010762 328.8316  31.2273 15.06661133492635"},{"id":"43016","name":"MAKERSAT 0","type":"PAYLOAD","l1":"1 43016U 17073D   26205.19779399  .00026732  00000-0  69466-3 0  9995","l2":"2 43016  97.4575  88.0240 0105720 140.4154 220.4870 15.33300093472136"},{"id":"43759","name":"SIRION PATHFINDER-2","type":"PAYLOAD","l1":"1 43759U 18099B   26205.11022326  .00004474  00000-0  24404-3 0  9993","l2":"2 43759  97.4239 253.2921 0009362 161.6229 198.5343 15.14833526418212"},{"id":"43767","name":"CORVUS BC4","type":"PAYLOAD","l1":"1 43767U 18099K   26205.10105907  .00004430  00000-0  25617-3 0  9997","l2":"2 43767  97.4051 247.0026 0006975 223.2516 136.8168 15.12756574417989"}]}