OBJECT_NAME,OBJECT_ID,EPOCH,MEAN_MOTION,ECCENTRICITY,INCLINATION,RA_OF_ASC_NODE,ARG_OF_PERICENTER,MEAN_ANOMALY,EPHEMERIS_TYPE,CLASSIFICATION_TYPE,NORAD_CAT_ID,ELEMENT_SET_NO,REV_AT_EPOCH,BSTAR,MEAN_MOTION_DOT,MEAN_MOTION_DDOT
POLYITAN-1,2014-033AJ,2026-07-24T00:58:30.966816,15.34473742,.00070041,98.0941,234.8218,36.9786,323.1936,0,U,40042,999,65924,.55314335E-3,.18417E-3,0
TIGRISAT,2014-033AK,2026-07-24T07:18:43.462080,14.85271242,.00479714,97.7875,354.4778,313.9514,45.7748,0,U,40043,999,65113,.18863554E-3,.1596E-4,0
AEROCUBE 6A,2014-033AM,2026-07-23T22:56:24.063648,14.98422054,.0036137,97.7277,11.5274,250.7169,109.0144,0,U,40045,999,65212,.51639364E-3,.6188E-4,0
AEROCUBE 6B,2014-033AN,2026-07-23T22:08:20.877504,14.99865546,.00382839,97.7203,11.3550,239.2988,120.4461,0,U,40046,999,65226,.4679059E-3,.5827E-4,0
CANX-4,2014-034C,2026-07-24T05:40:22.345536,14.81323496,.00114092,98.3071,81.9013,250.3355,109.6625,0,U,40055,999,65001,.12098523E-3,.888E-5,0
CANX-5,2014-034D,2026-07-24T05:37:29.553312,14.81340867,.00114179,98.3073,81.9450,250.6518,109.3460,0,U,40056,999,64082,.12097896E-3,.888E-5,0
UKUBE-1,2014-037F,2026-07-24T05:59:40.121088,15.14065632,.00029357,98.4250,212.4327,72.9994,287.1557,0,U,40074,999,65416,.5845785E-3,.10563E-3,0
BRITE-PL2 (HEWELIUSZ),2014-049B,2026-07-24T06:15:13.360320,14.94711012,.00135211,97.9123,317.5544,352.7139,7.3883,0,U,40119,999,64698,.20197706E-3,.2136E-4,0
AEROCUBE 5C,2015-058B,2026-07-24T04:22:06.863232,14.91627634,.01330151,64.7667,147.4851,49.0126,312.2401,0,U,40965,999,37117,.38175752E-3,.4384E-4,0
AEROCUBE 7,2015-058C,2026-07-24T03:19:32.104128,14.95987103,.01226902,64.7622,129.0534,47.3415,313.7959,0,U,40966,999,37148,.48917647E-3,.623E-4,0
FOX-1A (AO-85),2015-058D,2026-07-24T07:24:34.123392,14.91140428,.01331291,64.7741,163.6053,42.3614,318.7684,0,U,40967,999,11910,.3939625E-3,.4471E-4,0
SINOD-D 1,2015-058E,2026-07-24T05:54:00.755712,14.96166392,.01217929,64.7745,142.8366,38.7378,322.2391,0,U,40968,999,12220,.51876943E-3,.6637E-4,0
SNAP-3 ALICE,2015-058G,2026-07-23T19:05:38.409216,15.69320599,.00268396,64.7486,336.5005,343.4867,16.5406,0,U,40970,999,12261,.13006037E-2,.158878E-2,0
LMRST-SAT,2015-058H,2026-07-24T06:33:58.246848,14.90751879,.01346467,64.7748,160.1236,44.3722,316.8085,0,U,40971,999,11908,.36943381E-3,.4153E-4,0
SNAP-3 EDDIE,2015-058J,2026-07-24T07:52:22.503072,15.71167583,.00282522,64.7403,325.0640,345.5989,14.4353,0,U,40972,999,12484,.18793051E-2,.251389E-2,0
PROPCUBE 3,2015-058K,2026-07-24T05:13:09.583392,14.94481108,.01264513,64.7681,136.8195,45.5708,315.5669,0,U,40973,999,12033,.44178245E-3,.5429E-4,0
BISONSAT,2015-058L,2026-07-24T06:54:51.457248,15.17123052,.00829243,64.7590,53.5999,31.8286,328.7811,0,U,40974,999,12124,.75465878E-3,.16259E-3,0
SNAP-3 JIMI,2015-058M,2026-07-24T03:07:15.611520,15.02713074,.01084231,64.7650,102.8510,40.8748,320.0435,0,U,40975,999,11977,.5945121E-3,.8879E-4,0
PROPCUBE 1 (FLORA),2015-058N,2026-07-24T06:18:13.646880,14.89370987,.01331754,64.7732,180.3145,46.6373,314.5740,0,U,40976,999,12178,.35612406E-3,.3833E-4,0
SINOD-D 3,2015-058P,2026-07-24T06:07:20.431776,14.94241290,.0121762,64.7715,160.0470,43.6829,317.3842,0,U,40977,999,12029,.49708263E-3,.6021E-4,0
RAVAN,2016-067B,2026-07-24T06:23:41.173728,15.58331437,.00037091,97.9828,99.2214,180.4180,179.7072,0,U,41849,999,53346,.10392903E-2,.79383E-3,0
CELTEE 1,2016-067C,2026-07-24T01:49:19.549344,15.20009342,.00025409,98.0634,74.1589,99.0168,261.1353,0,U,41850,999,53148,.27717085E-3,.5895E-4,0
OPTICUBE 04,2016-067D,2026-07-24T04:40:37.199136,15.09801587,.00154353,98.0666,59.4064,358.0232,2.0932,0,U,41851,999,53075,.14152283E-3,.2221E-4,0
AEROCUBE 8D,2016-067E,2026-07-24T02:31:58.567872,15.24870796,.00039409,98.0638,78.0884,33.6310,326.5175,0,U,41852,999,53169,.3675181E-3,.9059E-4,0
AEROCUBE 8C,2016-067F,2026-07-24T04:33:37.575072,15.25125855,.0003638,98.0510,75.3602,302.9392,57.1494,0,U,41853,999,53170,.38513093E-3,.9571E-4,0
CORVUS BC2,2017-042X,2026-07-24T06:14:30.702048,15.06498387,.00125117,97.4099,5.1812,351.4289,8.6723,0,U,42846,999,49264,.28268913E-3,.4123E-4,0
CORVUS BC1,2017-042Y,2026-07-23T23:38:20.456736,15.06661133,.00107623,97.4136,5.7546,328.8316,31.2273,0,U,42847,999,49263,.22199619E-3,.3237E-4,0
MAKERSAT 0,2017-073D,2026-07-24T04:44:49.400736,15.33300093,.01057202,97.4575,88.0240,140.4154,220.4870,0,U,43016,999,47213,.69465801E-3,.26732E-3,0
SIRION PATHFINDER-2,2018-099B,2026-07-24T02:38:43.289664,15.14833526,.00093617,97.4239,253.2921,161.6229,198.5343,0,U,43759,999,41821,.2440367E-3,.4474E-4,0
CORVUS BC4,2018-099K,2026-07-24T02:25:31.503648,15.12756574,.00069751,97.4051,247.0026,223.2516,136.8168,0,U,43767,999,41798,.25616704E-3,.443E-4,0
